[{"OBJECT_NAME":"GAOFEN-2","OBJECT_ID":"2014-049A","EPOCH":"2026-04-25T19:27:02.129184","MEAN_MOTION":14.80838518,"ECCENTRICITY":0.000848,"INCLINATION":98.014,"RA_OF_ASC_NODE":180.0606,"ARG_OF_PERICENTER":50.1983,"MEAN_ANOMALY":309.9974,"EPHEMERIS_TYPE":0,"CLASSIFICATION_TYPE":"U","NORAD_CAT_ID":40118,"ELEMENT_SET_NO":999,"REV_AT_EPOCH":63148,"BSTAR":0.00012445,"MEAN_MOTION_DOT":9.07e-6,"MEAN_MOTION_DDOT":0},{"OBJECT_NAME":"YAOGAN-21","OBJECT_ID":"2014-053A","EPOCH":"2026-04-25T20:01:33.369600","MEAN_MOTION":15.25601243,"ECCENTRICITY":0.0006314,"INCLINATION":97.1532,"RA_OF_ASC_NODE":158.3335,"ARG_OF_PERICENTER":279.9196,"MEAN_ANOMALY":80.133,"EPHEMERIS_TYPE":0,"CLASSIFICATION_TYPE":"U","NORAD_CAT_ID":40143,"ELEMENT_SET_NO":999,"REV_AT_EPOCH":64697,"BSTAR":0.00025967,"MEAN_MOTION_DOT":6.532e-5,"MEAN_MOTION_DDOT":0},{"OBJECT_NAME":"YAOGAN-22","OBJECT_ID":"2014-063A","EPOCH":"2026-04-25T17:03:02.937024","MEAN_MOTION":13.15529597,"ECCENTRICITY":0.0005814,"INCLINATION":100.7644,"RA_OF_ASC_NODE":266.1269,"ARG_OF_PERICENTER":311.3764,"MEAN_ANOMALY":48.6847,"EPHEMERIS_TYPE":0,"CLASSIFICATION_TYPE":"U","NORAD_CAT_ID":40275,"ELEMENT_SET_NO":999,"REV_AT_EPOCH":55291,"BSTAR":6.9181e-5,"MEAN_MOTION_DOT":-2.1e-7,"MEAN_MOTION_DDOT":0},{"OBJECT_NAME":"ASNARO","OBJECT_ID":"2014-070A","EPOCH":"2026-04-25T19:23:38.023872","MEAN_MOTION":15.1962005,"ECCENTRICITY":0.0002936,"INCLINATION":97.3459,"RA_OF_ASC_NODE":193.3265,"ARG_OF_PERICENTER":21.5484,"MEAN_ANOMALY":338.5875,"EPHEMERIS_TYPE":0,"CLASSIFICATION_TYPE":"U","NORAD_CAT_ID":40298,"ELEMENT_SET_NO":999,"REV_AT_EPOCH":63605,"BSTAR":0.00035263,"MEAN_MOTION_DOT":7.448e-5,"MEAN_MOTION_DDOT":0},{"OBJECT_NAME":"YAOGAN-24","OBJECT_ID":"2014-072A","EPOCH":"2026-04-25T19:42:58.572000","MEAN_MOTION":14.76153877,"ECCENTRICITY":0.0015267,"INCLINATION":98.1402,"RA_OF_ASC_NODE":252.7408,"ARG_OF_PERICENTER":73.0917,"MEAN_ANOMALY":287.1965,"EPHEMERIS_TYPE":0,"CLASSIFICATION_TYPE":"U","NORAD_CAT_ID":40310,"ELEMENT_SET_NO":999,"REV_AT_EPOCH":61599,"BSTAR":0.000185,"MEAN_MOTION_DOT":1.227e-5,"MEAN_MOTION_DDOT":0},{"OBJECT_NAME":"CBERS 4","OBJECT_ID":"2014-079A","EPOCH":"2026-04-25T19:55:55.290720","MEAN_MOTION":14.35544409,"ECCENTRICITY":0.000125,"INCLINATION":98.3391,"RA_OF_ASC_NODE":174.3129,"ARG_OF_PERICENTER":129.8971,"MEAN_ANOMALY":230.2325,"EPHEMERIS_TYPE":0,"CLASSIFICATION_TYPE":"U","NORAD_CAT_ID":40336,"ELEMENT_SET_NO":999,"REV_AT_EPOCH":59644,"BSTAR":2.4797e-5,"MEAN_MOTION_DOT":2.9e-7,"MEAN_MOTION_DDOT":0},{"OBJECT_NAME":"YAOGAN-26","OBJECT_ID":"2014-088A","EPOCH":"2026-04-25T20:16:14.887200","MEAN_MOTION":15.45261485,"ECCENTRICITY":0.0002681,"INCLINATION":97.0664,"RA_OF_ASC_NODE":117.3604,"ARG_OF_PERICENTER":206.0877,"MEAN_ANOMALY":154.0238,"EPHEMERIS_TYPE":0,"CLASSIFICATION_TYPE":"U","NORAD_CAT_ID":40362,"ELEMENT_SET_NO":999,"REV_AT_EPOCH":62961,"BSTAR":0.00051122,"MEAN_MOTION_DOT":0.00024277,"MEAN_MOTION_DDOT":0},{"OBJECT_NAME":"SMAP","OBJECT_ID":"2015-003A","EPOCH":"2026-04-25T20:10:43.830048","MEAN_MOTION":14.63391521,"ECCENTRICITY":0.0001795,"INCLINATION":98.1295,"RA_OF_ASC_NODE":123.6729,"ARG_OF_PERICENTER":77.2509,"MEAN_ANOMALY":282.8894,"EPHEMERIS_TYPE":0,"CLASSIFICATION_TYPE":"U","NORAD_CAT_ID":40376,"ELEMENT_SET_NO":999,"REV_AT_EPOCH":59996,"BSTAR":9.7889e-5,"MEAN_MOTION_DOT":4.59e-6,"MEAN_MOTION_DDOT":0},{"OBJECT_NAME":"KOMPSAT-3A","OBJECT_ID":"2015-014A","EPOCH":"2026-04-25T20:22:54.869952","MEAN_MOTION":15.51395968,"ECCENTRICITY":0.0059577,"INCLINATION":97.69,"RA_OF_ASC_NODE":103.4878,"ARG_OF_PERICENTER":10.2841,"MEAN_ANOMALY":349.9613,"EPHEMERIS_TYPE":0,"CLASSIFICATION_TYPE":"U","NORAD_CAT_ID":40536,"ELEMENT_SET_NO":999,"REV_AT_EPOCH":61369,"BSTAR":0.00052325,"MEAN_MOTION_DOT":0.00033172,"MEAN_MOTION_DDOT":0},{"OBJECT_NAME":"SENTINEL-2A","OBJECT_ID":"2015-028A","EPOCH":"2026-04-25T20:05:23.553024","MEAN_MOTION":14.30822397,"ECCENTRICITY":0.0001291,"INCLINATION":98.562,"RA_OF_ASC_NODE":191.4366,"ARG_OF_PERICENTER":85.5249,"MEAN_ANOMALY":274.6081,"EPHEMERIS_TYPE":0,"CLASSIFICATION_TYPE":"U","NORAD_CAT_ID":40697,"ELEMENT_SET_NO":999,"REV_AT_EPOCH":56624,"BSTAR":-1.5402e-5,"MEAN_MOTION_DOT":-8.4e-7,"MEAN_MOTION_DDOT":0},{"OBJECT_NAME":"GAOFEN-8","OBJECT_ID":"2015-030A","EPOCH":"2026-04-25T19:41:28.260672","MEAN_MOTION":15.44074665,"ECCENTRICITY":0.0009492,"INCLINATION":97.6938,"RA_OF_ASC_NODE":306.1199,"ARG_OF_PERICENTER":31.1197,"MEAN_ANOMALY":329.0611,"EPHEMERIS_TYPE":0,"CLASSIFICATION_TYPE":"U","NORAD_CAT_ID":40701,"ELEMENT_SET_NO":999,"REV_AT_EPOCH":60336,"BSTAR":0.00051965,"MEAN_MOTION_DOT":0.00023729,"MEAN_MOTION_DDOT":0},{"OBJECT_NAME":"CARBONITE 1 (CBNT-1)","OBJECT_ID":"2015-032D","EPOCH":"2026-04-25T20:12:09.181152","MEAN_MOTION":14.83416304,"ECCENTRICITY":0.0015912,"INCLINATION":97.65,"RA_OF_ASC_NODE":296.111,"ARG_OF_PERICENTER":104.9489,"MEAN_ANOMALY":255.3488,"EPHEMERIS_TYPE":0,"CLASSIFICATION_TYPE":"U","NORAD_CAT_ID":40718,"ELEMENT_SET_NO":999,"REV_AT_EPOCH":58158,"BSTAR":0.00020148,"MEAN_MOTION_DOT":1.606e-5,"MEAN_MOTION_DDOT":0},{"OBJECT_NAME":"YAOGAN-27","OBJECT_ID":"2015-040A","EPOCH":"2026-04-25T21:04:41.954304","MEAN_MOTION":13.1606662,"ECCENTRICITY":0.0008043,"INCLINATION":100.1143,"RA_OF_ASC_NODE":104.5367,"ARG_OF_PERICENTER":340.4957,"MEAN_ANOMALY":19.5848,"EPHEMERIS_TYPE":0,"CLASSIFICATION_TYPE":"U","NORAD_CAT_ID":40878,"ELEMENT_SET_NO":999,"REV_AT_EPOCH":51078,"BSTAR":-0.00010209,"MEAN_MOTION_DOT":-8.1e-7,"MEAN_MOTION_DDOT":0},{"OBJECT_NAME":"GAOFEN-9 01","OBJECT_ID":"2015-047A","EPOCH":"2026-04-25T19:59:32.507232","MEAN_MOTION":14.82786212,"ECCENTRICITY":0.0026197,"INCLINATION":97.6326,"RA_OF_ASC_NODE":153.8961,"ARG_OF_PERICENTER":314.1498,"MEAN_ANOMALY":45.7562,"EPHEMERIS_TYPE":0,"CLASSIFICATION_TYPE":"U","NORAD_CAT_ID":40894,"ELEMENT_SET_NO":999,"REV_AT_EPOCH":57243,"BSTAR":0.00010307,"MEAN_MOTION_DOT":7.87e-6,"MEAN_MOTION_DDOT":0},{"OBJECT_NAME":"YAOGAN-28","OBJECT_ID":"2015-064A","EPOCH":"2026-04-25T20:03:18.531360","MEAN_MOTION":15.26735755,"ECCENTRICITY":0.0011114,"INCLINATION":97.2993,"RA_OF_ASC_NODE":255.2147,"ARG_OF_PERICENTER":24.3785,"MEAN_ANOMALY":335.7978,"EPHEMERIS_TYPE":0,"CLASSIFICATION_TYPE":"U","NORAD_CAT_ID":41026,"ELEMENT_SET_NO":999,"REV_AT_EPOCH":58269,"BSTAR":0.00026182,"MEAN_MOTION_DOT":6.823e-5,"MEAN_MOTION_DDOT":0},{"OBJECT_NAME":"YAOGAN-29","OBJECT_ID":"2015-069A","EPOCH":"2026-04-25T19:43:21.607104","MEAN_MOTION":14.83038537,"ECCENTRICITY":0.0001721,"INCLINATION":98.0078,"RA_OF_ASC_NODE":144.3633,"ARG_OF_PERICENTER":140.9347,"MEAN_ANOMALY":219.199,"EPHEMERIS_TYPE":0,"CLASSIFICATION_TYPE":"U","NORAD_CAT_ID":41038,"ELEMENT_SET_NO":999,"REV_AT_EPOCH":56286,"BSTAR":1.6457e-6,"MEAN_MOTION_DOT":-4.1e-7,"MEAN_MOTION_DDOT":0},{"OBJECT_NAME":"KENT RIDGE 1","OBJECT_ID":"2015-077B","EPOCH":"2026-04-25T20:01:50.559744","MEAN_MOTION":15.22805101,"ECCENTRICITY":0.0008313,"INCLINATION":14.9801,"RA_OF_ASC_NODE":295.2308,"ARG_OF_PERICENTER":220.4924,"MEAN_ANOMALY":139.4779,"EPHEMERIS_TYPE":0,"CLASSIFICATION_TYPE":"U","NORAD_CAT_ID":41167,"ELEMENT_SET_NO":999,"REV_AT_EPOCH":57310,"BSTAR":0.00014039,"MEAN_MOTION_DOT":4.146e-5,"MEAN_MOTION_DDOT":0}]
