GAOFEN-2                
1 40118U 14049A   26115.81044131  .00000907  00000+0  12445-3 0  9993
2 40118  98.0140 180.0606 0008480  50.1983 309.9974 14.80838518631484
YAOGAN-21               
1 40143U 14053A   26115.83441400  .00006532  00000+0  25967-3 0  9991
2 40143  97.1532 158.3335 0006314 279.9196  80.1330 15.25601243646972
YAOGAN-22               
1 40275U 14063A   26115.71045066 -.00000021  00000+0  69181-4 0  9998
2 40275 100.7644 266.1269 0005814 311.3764  48.6847 13.15529597552913
ASNARO                  
1 40298U 14070A   26115.80807898  .00007448  00000+0  35263-3 0  9992
2 40298  97.3459 193.3265 0002936  21.5484 338.5875 15.19620050636053
YAOGAN-24               
1 40310U 14072A   26115.82151125  .00001227  00000+0  18500-3 0  9990
2 40310  98.1402 252.7408 0015267  73.0917 287.1965 14.76153877615997
CBERS 4                 
1 40336U 14079A   26115.83050105  .00000029  00000+0  24797-4 0  9997
2 40336  98.3391 174.3129 0001250 129.8971 230.2325 14.35544409596447
YAOGAN-26               
1 40362U 14088A   26115.84461675  .00024277  00000+0  51122-3 0  9997
2 40362  97.0664 117.3604 0002681 206.0877 154.0238 15.45261485629616
SMAP                    
1 40376U 15003A   26115.84078507  .00000459  00000+0  97889-4 0  9995
2 40376  98.1295 123.6729 0001795  77.2509 282.8894 14.63391521599962
KOMPSAT-3A              
1 40536U 15014A   26115.84924618  .00033172  00000+0  52325-3 0  9991
2 40536  97.6900 103.4878 0059577  10.2841 349.9613 15.51395968613693
SENTINEL-2A             
1 40697U 15028A   26115.83707816 -.00000084  00000+0 -15402-4 0  9996
2 40697  98.5620 191.4366 0001291  85.5249 274.6081 14.30822397566244
GAOFEN-8                
1 40701U 15030A   26115.82046598  .00023729  00000+0  51965-3 0  9999
2 40701  97.6938 306.1199 0009492  31.1197 329.0611 15.44074665603363
CARBONITE 1 (CBNT-1)    
1 40718U 15032D   26115.84177293  .00001606  00000+0  20148-3 0  9997
2 40718  97.6500 296.1110 0015912 104.9489 255.3488 14.83416304581588
YAOGAN-27               
1 40878U 15040A   26115.87826336 -.00000081  00000+0 -10209-3 0  9990
2 40878 100.1143 104.5367 0008043 340.4957  19.5848 13.16066620510789
GAOFEN-9 01             
1 40894U 15047A   26115.83301513  .00000787  00000+0  10307-3 0  9996
2 40894  97.6326 153.8961 0026197 314.1498  45.7562 14.82786212572439
YAOGAN-28               
1 41026U 15064A   26115.83563115  .00006823  00000+0  26182-3 0  9996
2 41026  97.2993 255.2147 0011114  24.3785 335.7978 15.26735755582695
YAOGAN-29               
1 41038U 15069A   26115.82177786 -.00000041  00000+0  16457-5 0  9991
2 41038  98.0078 144.3633 0001721 140.9347 219.1990 14.83038537562863
KENT RIDGE 1            
1 41167U 15077B   26115.83461296  .00004146  00000+0  14039-3 0  9997
2 41167  14.9801 295.2308 0008313 220.4924 139.4779 15.22805101573102
